NORAD_CAT_ID,OBJECT_NAME,OBJECT_TYPE,EPOCH,MEAN_MOTION,ECCENTRICITY,INCLINATION,RA_OF_ASC_NODE,ARG_OF_PERICENTER,MEAN_ANOMALY,BSTAR,MEAN_MOTION_DOT,MEAN_MOTION_DDOT,TLE_LINE0,TLE_LINE1,TLE_LINE2,SEMIMAJOR_AXIS,PERIOD,APOGEE,PERIGEE,DECAYED
56495.0,STARLINK-5529,PAYLOAD,2024-04-07 15:18:59,14.98339354,0.0003013,69.9996,71.9817,270.7368,89.3446,9.554e-05,1.047e-05,0.0,0 STARLINK-5529,1 56495U 23064AZ  24098.63818769  .00001047  00000-0  95540-4 0  9994,2 56495  69.9996  71.9817 0003013 270.7368  89.3446 14.98339354 51584,6950.164,96.106,574.123,569.935,0.0
56495.0,STARLINK-5529,PAYLOAD,2024-04-08 07:20:19,14.98345519,0.0003017,69.9997,70.2983,270.7691,89.3122,0.00018393,2.103e-05,0.0,0 STARLINK-5529,1 56495U 23064AZ  24099.30578074  .00002103  00000-0  18393-3 0  9995,2 56495  69.9997  70.2983 0003017 270.7691  89.3122 14.98345519 51327,6950.145,96.106,574.107,569.913,0.0
56495.0,STARLINK-5529,PAYLOAD,2024-04-08 15:21:00,14.98340358,0.0003017,69.9997,69.4573,271.2733,88.8081,6.4485e-05,6.77e-06,0.0,0 STARLINK-5529,1 56495U 23064AZ  24099.63958415  .00000677  00000-0  64485-4 0  9990,2 56495  69.9997  69.4573 0003017 271.2733  88.8081 14.98340358 51734,6950.161,96.106,574.123,569.929,0.0
56495.0,STARLINK-5529,PAYLOAD,2024-04-08 23:21:41,14.98333125,0.000294,70.0002,68.6154,271.6232,88.459,-8.7713e-05,-1.139e-05,0.0,0 STARLINK-5529,1 56495U 23064AZ  24099.97339135 -.00001139  00000-0 -87713-4 0  9994,2 56495  70.0002  68.6154 0002940 271.6232  88.4590 14.98333125 51423,6950.183,96.107,574.092,570.005,0.0
56495.0,STARLINK-5529,PAYLOAD,2024-04-09 04:10:02,14.98362847,0.000258,70.0009,68.1105,260.3732,99.7135,0.00027253,3.163e-05,0.0,0 STARLINK-5529,1 56495U 23064AZ  24100.17364357  .00003163  00000-0  27253-3 0  9992,2 56495  70.0009  68.1105 0002580 260.3732  99.7135 14.98362847 51817,6950.091,96.105,573.749,570.163,0.0
56495.0,STARLINK-5529,PAYLOAD,2024-04-09 07:22:21,14.98334915,0.0002975,69.9999,67.7734,272.5834,87.4985,-8.6328e-05,-1.123e-05,0.0,0 STARLINK-5529,1 56495U 23064AZ  24100.30718863 -.00001123  00000-0 -86328-4 0  9997,2 56495  69.9999  67.7734 0002975 272.5834  87.4985 14.98334915 51835,6950.178,96.107,574.11,569.975,0.0
56495.0,STARLINK-5529,PAYLOAD,2024-04-09 21:47:33,14.98337403,0.0002922,70.0001,66.259,272.7824,87.3001,-0.00013791,-1.738e-05,0.0,0 STARLINK-5529,1 56495U 23064AZ  24100.90802581 -.00001738  00000-0 -13791-3 0  9999,2 56495  70.0001  66.2590 0002922 272.7824  87.3001 14.98337403 51562,6950.17,96.107,574.066,570.004,0.0
56495.0,STARLINK-5529,PAYLOAD,2024-04-10 07:24:21,14.98339282,0.0002948,70.0002,65.2483,271.6357,88.4464,-9.9685e-05,-1.282e-05,0.0,0 STARLINK-5529,1 56495U 23064AZ  24101.30858104 -.00001282  00000-0 -99685-4 0  9997,2 56495  70.0002  65.2483 0002948 271.6357  88.4464 14.98339282 51988,6950.164,96.106,574.078,569.98,0.0
56495.0,STARLINK-5529,PAYLOAD,2024-04-10 15:25:01,14.98363691,0.0003081,70.0006,64.4068,270.0259,90.0547,-0.00055386,-6.701e-05,0.0,0 STARLINK-5529,1 56495U 23064AZ  24101.64237329 -.00006701  00000-0 -55386-3 0  9994,2 56495  70.0006  64.4068 0003081 270.0259  90.0547 14.98363691 52034,6950.089,96.105,574.095,569.812,0.0
56495.0,STARLINK-5529,PAYLOAD,2024-04-10 21:49:34,14.98327138,0.0002873,70.0005,63.7336,273.5995,86.4835,-7.2156e-06,-1.79e-06,0.0,0 STARLINK-5529,1 56495U 23064AZ  24101.90942454 -.00000179  00000-0 -72156-5 0  9994,2 56495  70.0005  63.7336 0002873 273.5995  86.4835 14.98327138 51715,6950.202,96.107,574.064,570.07,0.0
56495.0,STARLINK-5529,PAYLOAD,2024-04-11 04:14:06,14.98328937,0.0002796,70.0006,63.0603,270.0492,90.0347,3.849e-05,3.66e-06,0.0,0 STARLINK-5529,1 56495U 23064AZ  24102.17646224  .00000366  00000-0  38490-4 0  9998,2 56495  70.0006  63.0603 0002796 270.0492  90.0347 14.98328937 52116,6950.196,96.107,574.004,570.118,0.0
56495.0,STARLINK-5529,PAYLOAD,2024-04-11 07:26:22,14.98330734,0.000286,70.0007,62.7235,272.275,87.8082,5.2877e-05,5.38e-06,0.0,0 STARLINK-5529,1 56495U 23064AZ  24102.30998075  .00000538  00000-0  52877-4 0  9993,2 56495  70.0007  62.7235 0002860 272.2750  87.8082 14.98330734 51776,6950.191,96.107,574.043,570.068,0.0
56495.0,STARLINK-5529,PAYLOAD,2024-04-11 21:51:35,14.98330617,0.0002796,70.001,61.2089,272.6957,87.3882,-2.034e-05,-3.36e-06,0.0,0 STARLINK-5529,1 56495U 23064AZ  24102.91082285 -.00000336  00000-0 -20340-4 0  9995,2 56495  70.0010  61.2089 0002796 272.6957  87.3882 14.98330617 51865,6950.191,96.107,573.999,570.113,0.0
56495.0,STARLINK-5529,PAYLOAD,2024-04-12 04:16:07,14.9832996,0.0002804,70.001,60.5357,271.9165,88.1673,-3.2336e-06,-1.32e-06,0.0,0 STARLINK-5529,1 56495U 23064AZ  24103.17786261 -.00000132  00000-0 -32336-5 0  9992,2 56495  70.0010  60.5357 0002804 271.9165  88.1673 14.98329960 52269,6950.193,96.107,574.007,570.109,0.0
56495.0,STARLINK-5529,PAYLOAD,2024-04-12 07:28:23,14.98332339,0.0002917,70.001,60.1991,271.7793,88.3032,-3.5232e-05,-5.13e-06,0.0,0 STARLINK-5529,1 56495U 23064AZ  24103.31138173 -.00000513  00000-0 -35232-4 0  9991,2 56495  70.0010  60.1991 0002917 271.7793  88.3032 14.98332339 51926,6950.186,96.107,574.078,570.023,0.0
56495.0,STARLINK-5529,PAYLOAD,2024-04-12 21:53:35,14.98331419,0.0002832,70.0011,58.6843,270.4165,89.667,4.6476e-06,-3.8e-07,0.0,0 STARLINK-5529,1 56495U 23064AZ  24103.91222103 -.00000038  00000-0  46476-5 0  9998,2 56495  70.0011  58.6843 0002832 270.4165  89.6670 14.98331419 52011,6950.189,96.107,574.022,570.085,0.0
56495.0,STARLINK-5529,PAYLOAD,2024-04-13 04:18:08,14.98331744,0.0003004,70.0006,58.0108,268.3696,91.7119,2.3487e-05,1.87e-06,0.0,0 STARLINK-5529,1 56495U 23064AZ  24104.17925956  .00000187  00000-0  23487-4 0  9993,2 56495  70.0006  58.0108 0003004 268.3696  91.7119 14.98331744 52417,6950.187,96.107,574.14,569.965,0.0
56495.0,STARLINK-5529,PAYLOAD,2024-04-13 07:30:24,14.98333334,0.0003034,70.0007,57.6741,267.693,92.3882,3.7311e-05,3.52e-06,0.0,0 STARLINK-5529,1 56495U 23064AZ  24104.31277788  .00000352  00000-0  37311-4 0  9997,2 56495  70.0007  57.6741 0003034 267.6930  92.3882 14.98333334 52075,6950.183,96.107,574.156,569.939,0.0
56495.0,STARLINK-5529,PAYLOAD,2024-04-13 21:55:37,14.9832656,0.0002699,70.0014,56.1588,267.1638,92.9212,1.4643e-05,8.2e-07,0.0,0 STARLINK-5529,1 56495U 23064AZ  24104.91362280  .00000082  00000-0  14643-4 0  9998,2 56495  70.0014  56.1588 0002699 267.1638  92.9212 14.98326560 52168,6950.204,96.107,573.944,570.193,0.0
56495.0,STARLINK-5529,PAYLOAD,2024-04-14 04:20:09,14.98326803,0.0002683,70.0015,55.4866,261.5778,98.5077,-1.0251e-06,-1.05e-06,0.0,0 STARLINK-5529,1 56495U 23064AZ  24105.18066347 -.00000105  00000-0 -10251-5 0  9993,2 56495  70.0015  55.4866 0002683 261.5778  98.5077 14.98326803 52561,6950.203,96.107,573.933,570.203,0.0
56495.0,STARLINK-5529,PAYLOAD,2024-04-14 21:57:37,14.98324436,0.0002706,70.0015,53.6354,261.8662,98.219,0.00013979,1.575e-05,0.0,0 STARLINK-5529,1 56495U 23064AZ  24105.91501960  .00001575  00000-0  13979-3 0  9997,2 56495  70.0015  53.6354 0002706 261.8662  98.2190 14.98324436 52310,6950.21,96.107,573.956,570.194,0.0
56495.0,STARLINK-5529,PAYLOAD,2024-04-15 04:22:09,14.9833221,0.0002727,70.0017,52.9622,261.6707,98.4143,9.1201e-05,9.95e-06,0.0,0 STARLINK-5529,1 56495U 23064AZ  24106.18205634  .00000995  00000-0  91201-4 0  9996,2 56495  70.0017  52.9622 0002727 261.6707  98.4143 14.98332210 52716,6950.186,96.107,573.946,570.156,0.0
56495.0,STARLINK-5529,PAYLOAD,2024-04-15 05:58:17,14.98332903,0.0002817,70.0016,52.7933,266.3051,93.7786,0.00011282,1.254e-05,0.0,0 STARLINK-5529,1 56495U 23064AZ  24106.24881534  .00001254  00000-0  11282-3 0  9991,2 56495  70.0016  52.7933 0002817 266.3051  93.7786 14.98332903 52363,6950.184,96.107,574.007,570.091,0.0
56495.0,STARLINK-5529,PAYLOAD,2024-04-15 20:23:30,14.9832737,0.0002605,70.0019,51.2794,259.5508,100.5358,1.1339e-05,4.2e-07,0.0,0 STARLINK-5529,1 56495U 23064AZ  24106.84966072  .00000042  00000-0  11339-4 0  9996,2 56495  70.0019  51.2794 0002605 259.5508 100.5358 14.98327370 52815,6950.201,96.107,573.877,570.255,0.0
56495.0,STARLINK-5529,PAYLOAD,2024-04-15 21:59:38,14.98325029,0.000269,70.0032,51.114,262.102,97.9833,7.5472e-06,-3e-08,0.0,0 STARLINK-5529,1 56495U 23064AZ  24106.91642272 -.00000003  00000-0  75472-5 0  9994,2 56495  70.0032  51.1140 0002690 262.1020  97.9833 14.98325029 52464,6950.208,96.107,573.943,570.204,0.0
56495.0,STARLINK-5529,PAYLOAD,2024-04-16 06:00:18,14.98334277,0.000298,70.0013,50.2685,266.2718,93.81,6.476e-05,6.8e-06,0.0,0 STARLINK-5529,1 56495U 23064AZ  24107.25021508  .00000680  00000-0  64760-4 0  9992,2 56495  70.0013  50.2685 0002980 266.2718  93.8100 14.98334277 52870,6950.18,96.107,574.116,569.974,0.0
56495.0,STARLINK-5529,PAYLOAD,2024-04-16 14:00:59,14.98333461,0.0002857,70.0016,49.4274,268.1787,91.9045,3.0115e-05,2.66e-06,0.0,0 STARLINK-5529,1 56495U 23064AZ  24107.58401626  .00000266  00000-0  30115-4 0  9998,2 56495  70.0016  49.4274 0002857 268.1787  91.9045 14.98333461 52564,6950.182,96.107,574.033,570.062,0.0
56495.0,STARLINK-5529,PAYLOAD,2024-04-16 22:01:39,14.98336878,0.0003008,70.0013,48.585,265.0223,95.0593,3.3294e-06,-5.3e-07,0.0,0 STARLINK-5529,1 56495U 23064AZ  24107.91781339 -.00000053  00000-0  33294-5 0  9994,2 56495  70.0013  48.5850 0003008 265.0223  95.0593 14.98336878 52615,6950.172,96.107,574.127,569.946,0.0
56495.0,STARLINK-5529,PAYLOAD,2024-04-17 04:26:10,14.9834823,0.0002778,70.0018,47.9136,251.2058,108.88,0.00011249,1.25e-05,0.0,0 STARLINK-5529,1 56495U 23064AZ  24108.18484065  .00001250  00000-0  11249-3 0  9993,2 56495  70.0018  47.9136 0002778 251.2058 108.8800 14.98348230 53010,6950.137,96.106,573.932,570.071,0.0
56495.0,STARLINK-5529,PAYLOAD,2024-04-17 06:02:18,14.98350696,0.0002842,70.0017,47.7457,253.7079,106.3767,0.00013139,1.476e-05,0.0,0 STARLINK-5529,1 56495U 23064AZ  24108.25159774  .00001476  00000-0  13139-3 0  9997,2 56495  70.0017  47.7457 0002842 253.7079 106.3767 14.98350696 52669,6950.129,96.106,573.969,570.019,0.0
